{
"type": "FeatureCollection",
"name": "qc_reservoir",
"crs": { "type": "name", "properties": { "name": "urn:ogc:def:crs:OGC:1.3:CRS84" } },
"features": [
{ "type": "Feature", "properties": { "barangay_name": "Reservoir" }, "geometry": { "type": "Polygon", "coordinates": [ [ [ 121.134281099985003, 14.7765427474767 ], [ 121.134165147505996, 14.777267656935599 ], [ 121.132745109645001, 14.777291127516699 ], [ 121.131929540992999, 14.775977817606201 ], [ 121.130928616779997, 14.776136943838599 ], [ 121.130090989966007, 14.776862268580899 ], [ 121.129369460608999, 14.777089179329501 ], [ 121.127576529029, 14.776387984570199 ], [ 121.126273115708997, 14.7767964306161 ], [ 121.124618695932, 14.774033857938701 ], [ 121.123851115804001, 14.775144193289901 ], [ 121.121732974455, 14.7756436479035 ], [ 121.120219476854004, 14.775032855720699 ], [ 121.118983507091002, 14.7735035429269 ], [ 121.118980356310999, 14.773499992552299 ], [ 121.118641402191002, 14.7731189462648 ], [ 121.115003348143006, 14.7720455254425 ], [ 121.114799421753006, 14.771293064026199 ], [ 121.114536865820995, 14.7703242487016 ], [ 121.113884134355004, 14.7685577633248 ], [ 121.113223320797005, 14.7676654515137 ], [ 121.110859361715995, 14.765286359709499 ], [ 121.109913544416003, 14.7638262067812 ], [ 121.109417158089002, 14.763723804905201 ], [ 121.107689595677002, 14.7633674279747 ], [ 121.105515068412004, 14.762579398619801 ], [ 121.101912133792993, 14.7654219584269 ], [ 121.099844540602007, 14.765159226794101 ], [ 121.099878818373995, 14.7644152978551 ], [ 121.099955926514994, 14.7627418913947 ], [ 121.099671818245994, 14.762474131605799 ], [ 121.099036867818, 14.7618757157702 ], [ 121.098408860719999, 14.7620036845064 ], [ 121.096369392271995, 14.760878721486399 ], [ 121.095133184831994, 14.7608204855742 ], [ 121.095135033164993, 14.7608204848133 ], [ 121.092794580489993, 14.759159080147301 ], [ 121.092371033080994, 14.759062288220001 ], [ 121.091723180773002, 14.7587231535014 ], [ 121.091019679983006, 14.7584141179395 ], [ 121.089830037845999, 14.758782509728499 ], [ 121.089000842087003, 14.7583980299313 ], [ 121.086659247219004, 14.758360905225301 ], [ 121.086048360147004, 14.7585822978244 ], [ 121.085595799862006, 14.7569626516201 ], [ 121.085565290345997, 14.7568711512991 ], [ 121.085563432759002, 14.7568711519868 ], [ 121.085222255299001, 14.7555738736822 ], [ 121.085092832363003, 14.7550817650309 ], [ 121.084935446328004, 14.7519136038659 ], [ 121.084928851504998, 14.7518882812843 ], [ 121.084862317455006, 14.751633049192 ], [ 121.084829494950995, 14.751513937908801 ], [ 121.084812438949001, 14.751480249798 ], [ 121.084796162605002, 14.7514452327861 ], [ 121.084727211380994, 14.7513031235044 ], [ 121.084597865880994, 14.7510980401269 ], [ 121.084549566391999, 14.7510168858164 ], [ 121.084511716220007, 14.7509614322865 ], [ 121.084433523624995, 14.7508422019447 ], [ 121.084339945641005, 14.7507097904688 ], [ 121.084274030968999, 14.750613223370401 ], [ 121.083643042115995, 14.7497305568887 ], [ 121.082925200188001, 14.7486747841621 ], [ 121.082872446067995, 14.748599587244399 ], [ 121.082872408900997, 14.748599542066801 ], [ 121.082685838577007, 14.7483257154935 ], [ 121.082634176933993, 14.7482655305643 ], [ 121.082269972853993, 14.7478423115047 ], [ 121.082264314260996, 14.7478357337137 ], [ 121.081650631540995, 14.7471682547238 ], [ 121.081139455542996, 14.7466426467841 ], [ 121.081015492560994, 14.746560216726399 ], [ 121.080435337731998, 14.746100537851 ], [ 121.080062431773996, 14.745962048456599 ], [ 121.079710492176005, 14.745860255339 ], [ 121.078897672943995, 14.7456077628536 ], [ 121.078671428939998, 14.7455263063648 ], [ 121.078545719825996, 14.7454651876253 ], [ 121.078420005479998, 14.7453633155981 ], [ 121.078277523577995, 14.745224745066601 ], [ 121.078197887957998, 14.7451065433743 ], [ 121.078126601500003, 14.744935338856299 ], [ 121.078088773008005, 14.744568437050299 ], [ 121.078047495247006, 14.7436435091278 ], [ 121.078043550299995, 14.7435453737234 ], [ 121.078012721831996, 14.742778719092099 ], [ 121.077987507564004, 14.742546346509799 ], [ 121.077941365800996, 14.742383276830299 ], [ 121.077877330212004, 14.742306383337 ], [ 121.077857261028996, 14.7422822852199 ], [ 121.077725008932006, 14.742123456257 ], [ 121.077547662765994, 14.742083467519601 ], [ 121.076700961693007, 14.7418584365579 ], [ 121.076118095843995, 14.7416066892969 ], [ 121.075386085692003, 14.740595780501399 ], [ 121.074963287751004, 14.739929350667399 ], [ 121.074370108924001, 14.739206486085299 ], [ 121.074063842103001, 14.7389501253814 ], [ 121.073532593723996, 14.738553743753499 ], [ 121.072932264458998, 14.7381144512105 ], [ 121.072376661912998, 14.7377519678144 ], [ 121.071904397720999, 14.7375408470712 ], [ 121.071682862293997, 14.737426049290599 ], [ 121.071492298066005, 14.7373064876352 ], [ 121.070941791148996, 14.7368350346032 ], [ 121.070588606661005, 14.7365292084705 ], [ 121.070748382773999, 14.7364753371806 ], [ 121.070954586157995, 14.7364827305675 ], [ 121.071067967727004, 14.7364692559687 ], [ 121.071172022108996, 14.736418103914399 ], [ 121.071459325608004, 14.7358153931742 ], [ 121.071599262907, 14.7354458771966 ], [ 121.071559231129996, 14.7352609136975 ], [ 121.071374295300004, 14.7350226785543 ], [ 121.071293143871998, 14.734818241309799 ], [ 121.071473551878995, 14.734244259681001 ], [ 121.071473474691004, 14.7340075129675 ], [ 121.071137525148998, 14.7323109464257 ], [ 121.071623542354004, 14.730793471436399 ], [ 121.071538165947999, 14.7289354139709 ], [ 121.071537901507995, 14.728124740920601 ], [ 121.071685110163997, 14.7274575037896 ], [ 121.071655533500007, 14.727177726113201 ], [ 121.070611889922006, 14.7253127768697 ], [ 121.070307726105, 14.7230537681399 ], [ 121.070098584739, 14.7224437611328 ], [ 121.068875279888999, 14.7213017248933 ], [ 121.068789141603006, 14.7209548457077 ], [ 121.068942590093997, 14.7203626613874 ], [ 121.069258784382995, 14.7177200907093 ], [ 121.069291788493999, 14.7171927188904 ], [ 121.069234896249995, 14.716707094340199 ], [ 121.067763215656001, 14.715483293555099 ], [ 121.067776730288003, 14.7145012146638 ], [ 121.067412651121003, 14.7143290342967 ], [ 121.067420063056005, 14.710039952687101 ], [ 121.067588128053004, 14.7099744670008 ], [ 121.067789309646997, 14.710038977326599 ], [ 121.068049390260995, 14.7099173821977 ], [ 121.068175750869003, 14.7099686460281 ], [ 121.068367916049993, 14.7101527432441 ], [ 121.068555150587002, 14.7103662159822 ], [ 121.068881993505002, 14.710676663408799 ], [ 121.069087468058001, 14.7107174188731 ], [ 121.069580818334003, 14.710818951311699 ], [ 121.069928493963999, 14.710931824471 ], [ 121.070255506487996, 14.710980061999701 ], [ 121.070733936682004, 14.7104229269548 ], [ 121.071202276136006, 14.7108278676846 ], [ 121.071420910559993, 14.711243007334 ], [ 121.071730679512996, 14.7112905431083 ], [ 121.072132334732999, 14.711397747348901 ], [ 121.072434119416002, 14.7113648896784 ], [ 121.072894025202999, 14.7112449890517 ], [ 121.073369531267005, 14.7109036461268 ], [ 121.073804969093004, 14.7105137345374 ], [ 121.075807094121004, 14.7100385817141 ], [ 121.079687766806998, 14.710822800994199 ], [ 121.079987963462997, 14.7107440198769 ], [ 121.080899844035997, 14.7097771379115 ], [ 121.083151511454005, 14.70970890697 ], [ 121.083216017471003, 14.709895902700699 ], [ 121.089905033042996, 14.712101667756601 ], [ 121.090401554622005, 14.712342225636901 ], [ 121.090129762586997, 14.7142231664428 ], [ 121.090422610071997, 14.7142232331261 ], [ 121.090635526491994, 14.7143678427576 ], [ 121.091679548553998, 14.714390443374599 ], [ 121.092247228063997, 14.714432932704 ], [ 121.092642481211001, 14.714427885354301 ], [ 121.093172920249998, 14.7143750521992 ], [ 121.093649250802997, 14.7142400371308 ], [ 121.094642395340003, 14.713792395628699 ], [ 121.094872174279999, 14.7138646525938 ], [ 121.095801657289002, 14.7146699457672 ], [ 121.096102408837993, 14.7147783430836 ], [ 121.096882937230006, 14.7149029804287 ], [ 121.097974257188, 14.714905802466401 ], [ 121.098210831065003, 14.7150504041327 ], [ 121.099799430358004, 14.7164111514672 ], [ 121.100671552161003, 14.717295371131099 ], [ 121.100833821031998, 14.717499184547901 ], [ 121.100935337912006, 14.7178411462664 ], [ 121.100928758972003, 14.7182357664701 ], [ 121.100682403061001, 14.7188639660453 ], [ 121.100489904336996, 14.7190613627975 ], [ 121.099834618551995, 14.7194792837384 ], [ 121.099949814225994, 14.7201895379535 ], [ 121.100054617077006, 14.7203045943116 ], [ 121.100872434229004, 14.720652816257401 ], [ 121.10139613938, 14.7206295672966 ], [ 121.101588738985001, 14.7206689527713 ], [ 121.101778014969, 14.720810263426801 ], [ 121.102143149422005, 14.7212737808848 ], [ 121.10253533657, 14.721816207397101 ], [ 121.102869954701006, 14.722072563364801 ], [ 121.103329625232007, 14.722388054304499 ], [ 121.104367215235001, 14.7230189711057 ], [ 121.104755882975994, 14.7232325492211 ], [ 121.105279702879002, 14.723455925963099 ], [ 121.10550272511, 14.7234887054714 ], [ 121.105803412597993, 14.7234293770964 ], [ 121.106367574911999, 14.7232318146577 ], [ 121.106631106804997, 14.7231922326743 ], [ 121.107087236557007, 14.7231821525081 ], [ 121.107438610521996, 14.7231260884801 ], [ 121.107860879811, 14.7229614691809 ], [ 121.108563470700005, 14.722553364204099 ], [ 121.109320167887006, 14.7222504724368 ], [ 121.109921393842001, 14.7218457101109 ], [ 121.110309828414998, 14.7215890211678 ], [ 121.110742301388996, 14.721559214685801 ], [ 121.111701556615998, 14.7215841695237 ], [ 121.112252732002005, 14.721778821012 ], [ 121.112685338478997, 14.7220087959682 ], [ 121.112908452542996, 14.7222388813584 ], [ 121.112979589907994, 14.7225874321483 ], [ 121.112929058340995, 14.722886702701601 ], [ 121.112517175094993, 14.7235215748931 ], [ 121.112372144380004, 14.7240412245255 ], [ 121.112341957492006, 14.724465456285699 ], [ 121.112457032818, 14.724856727514201 ], [ 121.112700536210994, 14.7252906869032 ], [ 121.113130078462007, 14.7261191721375 ], [ 121.113474835274999, 14.7263524873159 ], [ 121.114647615592006, 14.7269537001788 ], [ 121.115252587651995, 14.7272394950538 ], [ 121.116290071273994, 14.727544801906401 ], [ 121.117107903985001, 14.727823914119201 ], [ 121.117276907386994, 14.727935640144 ], [ 121.117381754185999, 14.728126311092501 ], [ 121.117669421277995, 14.728977879724001 ], [ 121.117865568721001, 14.7293099156567 ], [ 121.118098939971006, 14.7297142831966 ], [ 121.118437245710993, 14.730483613447801 ], [ 121.118528642469997, 14.730802542711301 ], [ 121.118552521813996, 14.7312201674654 ], [ 121.118539365027999, 14.7318778656518 ], [ 121.118536130392002, 14.7321475218762 ], [ 121.118640996346997, 14.7323678012824 ], [ 121.118838063723999, 14.7328980434079 ], [ 121.119492987387005, 14.733274978561401 ], [ 121.119657817497995, 14.733659685491601 ], [ 121.121089626865, 14.7346582125535 ], [ 121.121411217795, 14.7347943038727 ], [ 121.122085374584003, 14.734819183876599 ], [ 121.121971947483004, 14.735995148618899 ], [ 121.122008482843, 14.7364291613885 ], [ 121.122743739418993, 14.738087027451201 ], [ 121.119493736376995, 14.7399296542184 ], [ 121.118342605845996, 14.7394326844777 ], [ 121.118152683461005, 14.7398645900976 ], [ 121.117796341605001, 14.740674937021399 ], [ 121.117768430387997, 14.7407383902802 ], [ 121.118248598164001, 14.7427662063402 ], [ 121.118560333684997, 14.7433954390164 ], [ 121.118441471378006, 14.7450738910892 ], [ 121.117867194181002, 14.7462164212667 ], [ 121.118921861076004, 14.7474979839395 ], [ 121.118419926441007, 14.749526292252099 ], [ 121.120888454538004, 14.7517628684013 ], [ 121.121008821535995, 14.752835113094401 ], [ 121.121523819206999, 14.7537566106129 ], [ 121.121098989814001, 14.755190559645699 ], [ 121.121770708518994, 14.7561460300712 ], [ 121.121345504817, 14.7569268357444 ], [ 121.121607805501, 14.7575957668809 ], [ 121.122604504037, 14.757675318529801 ], [ 121.123392279607003, 14.7577381936217 ], [ 121.123393740325, 14.758862785702 ], [ 121.123573488082997, 14.759745312446301 ], [ 121.124244625635995, 14.7596334396135 ], [ 121.125669540755993, 14.7607955835634 ], [ 121.125473316831005, 14.7611780138743 ], [ 121.126341903864002, 14.7628024318511 ], [ 121.125703745850998, 14.7633284850581 ], [ 121.125737475527998, 14.7650648615768 ], [ 121.125099181939007, 14.7653678873162 ], [ 121.124903152919998, 14.766116715196301 ], [ 121.126330815409005, 14.7670028450834 ], [ 121.126852024268004, 14.767326351731599 ], [ 121.127934445785002, 14.7690746034824 ], [ 121.128015489795004, 14.7692054854198 ], [ 121.127803008043998, 14.7697950269526 ], [ 121.128343552721006, 14.7702885633914 ], [ 121.129031048627994, 14.7700970141121 ], [ 121.129080617661998, 14.770877567331301 ], [ 121.129390297198995, 14.7713016634321 ], [ 121.130162023864003, 14.772358477690499 ], [ 121.131389833111001, 14.772246269497099 ], [ 121.132728791315003, 14.7725523944668 ], [ 121.133440703394996, 14.772715150048599 ], [ 121.133767873688001, 14.7747762303225 ], [ 121.135049088825994, 14.7761572197926 ], [ 121.134281099985003, 14.7765427474767 ] ] ] } }
]
}
